$$SOE
2460721.500000000, A.D. 2025-Feb-15 00:00:00.0000, 4.222237683454922E+08, 7.032306190413420E+07, -5.674760824438429E+07,
2460728.500000000, A.D. 2025-Feb-22 00:00:00.0000, 4.211108693854437E+08, 8.081559163266066E+07, -5.590741741745123E+07,
2460735.500000000, A.D. 2025-Mar-01 00:00:00.0000, 4.197451377246395E+08, 9.125959208948879E+07, -5.503365764490484E+07,
2460742.500000000, A.D. 2025-Mar-08 00:00:00.0000, 4.181285061856051E+08, 1.016490358649207E+08, -5.412699944808369E+07,
2460749.500000000, A.D. 2025-Mar-15 00:00:00.0000, 4.162630403381119E+08, 1.119779825163230E+08, -5.318812695775751E+07,
2460756.500000000, A.D. 2025-Mar-22 00:00:00.0000, 4.141509326791978E+08, 1.222405811728026E+08, -5.221773700804561E+07,
2460763.500000000, A.D. 2025-Mar-29 00:00:00.0000, 4.117944981988330E+08, 1.324310707361830E+08, -5.121653855117527E+07,
2460770.500000000, A.D. 2025-Apr-05 00:00:00.0000, 4.091961716597172E+08, 1.425437808203644E+08, -5.018525216686805E+07,
2460777.500000000, A.D. 2025-Apr-12 00:00:00.0000, 4.063585046691558E+08, 1.525731335386180E+08, -4.912460948169133E+07,
2460784.500000000, A.D. 2025-Apr-19 00:00:00.0000, 4.032841623606013E+08, 1.625136452630540E+08, -4.803535255389018E+07,
2460791.500000000, A.D. 2025-Apr-26 00:00:00.0000, 3.999759199609696E+08, 1.723599281586194E+08, -4.691823326581062E+07,
2460798.500000000, A.D. 2025-May-03 00:00:00.0000, 3.964366593613448E+08, 1.821066915161887E+08, -4.577401273325635E+07,
2460805.500000000, A.D. 2025-May-10 00:00:00.0000, 3.926693657232128E+08, 1.917487428988704E+08, -4.460346073407100E+07,
2460812.500000000, A.D. 2025-May-17 00:00:00.0000, 3.886771241602932E+08, 2.012809890660483E+08, -4.340735516296704E+07,
2460819.500000000, A.D. 2025-May-24 00:00:00.0000, 3.844631166732869E+08, 2.106984366262301E+08, -4.218648153328294E+07,
2460826.500000000, A.D. 2025-May-31 00:00:00.0000, 3.800306197585206E+08, 2.199961927344072E+08, -4.094163253881700E+07,
2460833.500000000, A.D. 2025-Jun-07 00:00:00.0000, 3.753830022904898E+08, 2.291694670423603E+08, -3.967360754035886E+07,
2460840.500000000, A.D. 2025-Jun-14 00:00:00.0000, 3.705237213134475E+08, 2.382135742410992E+08, -3.838321181408256E+07,
2460847.500000000, A.D. 2025-Jun-21 00:00:00.0000, 3.654563169628487E+08, 2.471239339318534E+08, -3.707125594099777E+07,
2460854.500000000, A.D. 2025-Jun-28 00:00:00.0000, 3.601844096485527E+08, 2.558960695944358E+08, -3.573855548046366E+07,
2460861.500000000, A.D. 2025-Jul-05 00:00:00.0000, 3.547116979831039E+08, 2.645256088131595E+08, -3.438593061208382E+07,
2460868.500000000, A.D. 2025-Jul-12 00:00:00.0000, 3.490419562645662E+08, 2.730082839602156E+08, -3.301420570223984E+07,
2460875.500000000, A.D. 2025-Jul-19 00:00:00.0000, 3.431790317049040E+08, 2.813399327666553E+08, -3.162420885945746E+07,
2460882.500000000, A.D. 2025-Jul-26 00:00:00.0000, 3.371268416152711E+08, 2.895164987289082E+08, -3.021677150226076E+07,
2460889.500000000, A.D. 2025-Aug-02 00:00:00.0000, 3.308893706145304E+08, 2.975340313761200E+08, -2.879272794340384E+07,
2460896.500000000, A.D. 2025-Aug-09 00:00:00.0000, 3.244706678843662E+08, 3.053886863865600E+08, -2.735291499331966E+07,
2460903.500000000, A.D. 2025-Aug-16 00:00:00.0000, 3.178748445466081E+08, 3.130767254926947E+08, -2.589817159436963E+07,
2460910.500000000, A.D. 2025-Aug-23 00:00:00.0000, 3.111060714534507E+08, 3.205945161952814E+08, -2.442933851074746E+07,
2460917.500000000, A.D. 2025-Aug-30 00:00:00.0000, 3.041685777182791E+08, 3.279385320052606E+08, -2.294725804540808E+07,
2460924.500000000, A.D. 2025-Sep-06 00:00:00.0000, 2.970666485674423E+08, 3.351053542176745E+08, -2.145277357169355E+07,
2460931.500000000, A.D. 2025-Sep-13 00:00:00.0000, 2.898046208402805E+08, 3.420916727406386E+08, -1.994672892859073E+07,
2460938.500000000, A.D. 2025-Sep-20 00:00:00.0000, 2.823868794132671E+08, 3.488942843427918E+08, -1.842996811402525E+07,
2460945.500000000, A.D. 2025-Sep-27 00:00:00.0000, 2.748178556096251E+08, 3.555100914339607E+08, -1.690333511885774E+07,
2460952.500000000, A.D. 2025-Oct-04 00:00:00.0000, 2.671020255767255E+08, 3.619361019196194E+08, -1.536767367193794E+07,
2460959.500000000, A.D. 2025-Oct-11 00:00:00.0000, 2.592439082559606E+08, 3.681694291887518E+08, -1.382382693839708E+07,
2460966.500000000, A.D. 2025-Oct-18 00:00:00.0000, 2.512480632274100E+08, 3.742072919637771E+08, -1.227263721915241E+07,
2460973.500000000, A.D. 2025-Oct-25 00:00:00.0000, 2.431190885675365E+08, 3.800470140266204E+08, -1.071494566314489E+07,
2460980.500000000, A.D. 2025-Nov-01 00:00:00.0000, 2.348616187580400E+08, 3.856860238393804E+08, -9.151591994343579E+06,
2460987.500000000, A.D. 2025-Nov-08 00:00:00.0000, 2.264803226790506E+08, 3.911218540309528E+08, -7.583414258976340E+06,
2460994.500000000, A.D. 2025-Nov-15 00:00:00.0000, 2.179799018330458E+08, 3.963521406936887E+08, -6.011248611087620E+06,
2461001.500000000, A.D. 2025-Nov-22 00:00:00.0000, 2.093650892007705E+08, 4.013746227129264E+08, -4.435929155185908E+06,
2461008.500000000, A.D. 2025-Nov-29 00:00:00.0000, 2.006406485750341E+08, 4.061871422664998E+08, -2.858287739128858E+06,
2461015.500000000, A.D. 2025-Dec-06 00:00:00.0000, 1.918113720925558E+08, 4.107876463577813E+08, -1.279153499367625E+06,
2461022.500000000, A.D. 2025-Dec-13 00:00:00.0000, 1.828820763924329E+08, 4.151741860134522E+08, 3.006475266664028E+05,
2461029.500000000, A.D. 2025-Dec-20 00:00:00.0000, 1.738576008926219E+08, 4.193449141750896E+08, 1.880292484382540E+06,
2461036.500000000, A.D. 2025-Dec-27 00:00:00.0000, 1.647428071105426E+08, 4.232980848790395E+08, 3.458961792300165E+06,
2461043.500000000, A.D. 2026-Jan-03 00:00:00.0000, 1.555425775667713E+08, 4.270320531108052E+08, 5.035839322596788E+06,
2461050.500000000, A.D. 2026-Jan-10 00:00:00.0000, 1.462618143798094E+08, 4.305452746577873E+08, 6.610112606827766E+06,
2461057.500000000, A.D. 2026-Jan-17 00:00:00.0000, 1.369054377832036E+08, 4.338363058716480E+08, 8.180973038469404E+06,
2461064.500000000, A.D. 2026-Jan-24 00:00:00.0000, 1.274783846416921E+08, 4.369038033654116E+08, 9.747616067481309E+06,
2461071.500000000, A.D. 2026-Jan-31 00:00:00.0000, 1.179856069883524E+08, 4.397465236399756E+08, 1.130924138462809E+07,
2461078.500000000, A.D. 2026-Feb-07 00:00:00.0000, 1.084320706425023E+08, 4.423633225845588E+08, 1.286505308573273E+07,
2461085.500000000, A.D. 2026-Feb-14 00:00:00.0000, 9.882275415937506E+07, 4.447531548377159E+08, 1.441425979189816E+07,
2461092.500000000, A.D. 2026-Feb-21 00:00:00.0000, 8.916264849715404E+07, 4.469150735884221E+08, 1.595607473779798E+07,
2461099.500000000, A.D. 2026-Feb-28 00:00:00.0000, 7.945675631557991E+07, 4.488482319728870E+08, 1.748971602216399E+07,
2461106.500000000, A.D. 2026-Mar-07 00:00:00.0000, 6.971008884612402E+07, 4.505518841159421E+08, 1.901440705022097E+07,
2461113.500000000, A.D. 2026-Mar-14 00:00:00.0000, 5.992766310505702E+07, 4.520253834841650E+08, 2.052937672347635E+07,
2461120.500000000, A.D. 2026-Mar-21 00:00:00.0000, 5.011450123013370E+07, 4.532681814529778E+08, 2.203385945077881E+07,
2461127.500000000, A.D. 2026-Mar-28 00:00:00.0000, 4.027562993133396E+07, 4.542798271179777E+08, 2.352709524938625E+07,
2461134.500000000, A.D. 2026-Apr-04 00:00:00.0000, 3.041607945062195E+07, 4.550599673845711E+08, 2.500832991297632E+07,
2461141.500000000, A.D. 2026-Apr-11 00:00:00.0000, 2.054088230324049E+07, 4.556083469758922E+08, 2.647681519256717E+07,
2461148.500000000, A.D. 2026-Apr-18 00:00:00.0000, 1.065507195882450E+07, 4.559248083516796E+08, 2.793180897559798E+07,
2461155.500000000, A.D. 2026-Apr-25 00:00:00.0000, 7.636815069304541E+05, 4.560092915511983E+08, 2.937257546045247E+07,
2461162.500000000, A.D. 2026-May-02 00:00:00.0000, -9.128257664493212E+06, 4.558618339286177E+08, 3.079838532143542E+07,
2461169.500000000, A.D. 2026-May-09 00:00:00.0000, -1.901571705626312E+07, 4.554825697135512E+08, 3.220851584771758E+07,
2461176.500000000, A.D. 2026-May-16 00:00:00.0000, -2.889367173627366E+07, 4.548717295359039E+08, 3.360225103344291E+07,
2461183.500000000, A.D. 2026-May-23 00:00:00.0000, -3.875710045982547E+07, 4.540296409402626E+08, 3.497888169848990E+07,
2461190.500000000, A.D. 2026-May-30 00:00:00.0000, -4.860098731077548E+07, 4.529567302123762E+08, 3.633770585714129E+07,
2461197.500000000, A.D. 2026-Jun-06 00:00:00.0000, -5.842032518036807E+07, 4.516535222426990E+08, 3.767802909632957E+07,
2461204.500000000, A.D. 2026-Jun-13 00:00:00.0000, -6.821011742064349E+07, 4.501206386241804E+08, 3.899916464368784E+07,
2461211.500000000, A.D. 2026-Jun-20 00:00:00.0000, -7.796537817559539E+07, 4.483587969124448E+08, 4.030043341074079E+07,
2461218.500000000, A.D. 2026-Jun-27 00:00:00.0000, -8.768113308882552E+07, 4.463688107082831E+08, 4.158116413911757E+07,
2461225.500000000, A.D. 2026-Jul-04 00:00:00.0000, -9.735242038922094E+07, 4.441515897856653E+08, 4.284069358630154E+07,
2461232.500000000, A.D. 2026-Jul-11 00:00:00.0000, -1.069742921027819E+08, 4.417081401319872E+08, 4.407836671675563E+07,
2461239.500000000, A.D. 2026-Jul-18 00:00:00.0000, -1.165418152999164E+08, 4.390395639253300E+08, 4.529353689197212E+07,
2461246.500000000, A.D. 2026-Jul-25 00:00:00.0000, -1.260500733556783E+08, 4.361470594505817E+08, 4.648556605740190E+07,
2461253.500000000, A.D. 2026-Aug-01 00:00:00.0000, -1.354941671766989E+08, 4.330319209053461E+08, 4.765382491792035E+07,
2461260.500000000, A.D. 2026-Aug-08 00:00:00.0000, -1.448692161818028E+08, 4.296955380586804E+08, 4.879769307922259E+07,
2461267.500000000, A.D. 2026-Aug-15 00:00:00.0000, -1.541703586234393E+08, 4.261393962120327E+08, 4.991655915399176E+07,
2461274.500000000, A.D. 2026-Aug-22 00:00:00.0000, -1.633927520134806E+08, 4.223650776836413E+08, 5.100982100270009E+07,
2461281.500000000, A.D. 2026-Aug-29 00:00:00.0000, -1.725315759435454E+08, 4.183742634440472E+08, 5.207688620699358E+07,
2461288.500000000, A.D. 2026-Sep-05 00:00:00.0000, -1.815820351661474E+08, 4.141687320312518E+08, 5.311717234535781E+07,
$$EOE